{
  "type": "FeatureCollection",
  "features": [
    {
      "type": "Feature",
      "properties": {
        "norad_id": 58655,
        "name": "BEIDOU-3 M26 (C48)",
        "group": "beidou",
        "lat": 4.861542646286303,
        "lon": 71.59706435368504,
        "alt_km": 21531.000583479745,
        "timestamp": "2025-12-22T23:36:20.978907+00:00",
        "meta_object_name": "BEIDOU-3 M26 (C48)",
        "meta_object_id": "2023-207B",
        "meta_epoch": "2025-12-22T10:30:28.326240",
        "meta_mean_motion": 1.86231247,
        "meta_eccentricity": 0.00041599,
        "meta_inclination": 55.5947,
        "meta_ra_of_asc_node": 68.2593,
        "meta_arg_of_pericenter": 259.3765,
        "meta_mean_anomaly": 100.6271,
        "meta_ephemeris_type": 0,
        "meta_classification_type": "U",
        "meta_norad_cat_id": 58655,
        "meta_element_set_no": 999,
        "meta_rev_at_epoch": 1353,
        "meta_bstar": 0,
        "meta_mean_motion_dot": -3e-07,
        "meta_mean_motion_ddot": 0,
        "tle_line1": "1 58655U 23207B   25356.43782785 -.00000030  00000+0  00000+0 0  9990",
        "tle_line2": "2 58655  55.5947  68.2593 0004159 259.3765 100.6271  1.86231247 13538"
      },
      "geometry": {
        "type": "Point",
        "coordinates": [
          71.59706435368504,
          4.861542646286303
        ]
      }
    },
    {
      "type": "Feature",
      "properties": {
        "norad_id": 61186,
        "name": "BEIDOU-3 M25 (C47)",
        "group": "beidou",
        "lat": 43.27335563711746,
        "lon": 86.43418935976383,
        "alt_km": 21538.111498261682,
        "timestamp": "2025-12-22T23:36:20.978919+00:00",
        "meta_object_name": "BEIDOU-3 M25 (C47)",
        "meta_object_id": "2024-168B",
        "meta_epoch": "2025-12-22T12:27:11.391840",
        "meta_mean_motion": 1.86230177,
        "meta_eccentricity": 0.0005446,
        "meta_inclination": 54.6334,
        "meta_ra_of_asc_node": 308.3821,
        "meta_arg_of_pericenter": 299.7491,
        "meta_mean_anomaly": 231.473,
        "meta_ephemeris_type": 0,
        "meta_classification_type": "U",
        "meta_norad_cat_id": 61186,
        "meta_element_set_no": 999,
        "meta_rev_at_epoch": 849,
        "meta_bstar": 0,
        "meta_mean_motion_dot": -5.7e-07,
        "meta_mean_motion_ddot": 0,
        "tle_line1": "1 61186U 24168B   25356.51888185 -.00000057  00000+0  00000+0 0  9999",
        "tle_line2": "2 61186  54.6334 308.3821 0005446 299.7491 231.4730  1.86230177  8490"
      },
      "geometry": {
        "type": "Point",
        "coordinates": [
          86.43418935976383,
          43.27335563711746
        ]
      }
    },
    {
      "type": "Feature",
      "properties": {
        "norad_id": 61187,
        "name": "BEIDOU-3 M27 (C49)",
        "group": "beidou",
        "lat": -52.83322131278163,
        "lon": -162.27863670460135,
        "alt_km": 21532.930133896425,
        "timestamp": "2025-12-22T23:36:20.978931+00:00",
        "meta_object_name": "BEIDOU-3 M27 (C49)",
        "meta_object_id": "2024-168C",
        "meta_epoch": "2025-12-22T03:50:36.507264",
        "meta_mean_motion": 1.86230347,
        "meta_eccentricity": 0.00025426,
        "meta_inclination": 54.6292,
        "meta_ra_of_asc_node": 308.3781,
        "meta_arg_of_pericenter": 340.4099,
        "meta_mean_anomaly": 85.2457,
        "meta_ephemeris_type": 0,
        "meta_classification_type": "U",
        "meta_norad_cat_id": 61187,
        "meta_element_set_no": 999,
        "meta_rev_at_epoch": 596,
        "meta_bstar": 0,
        "meta_mean_motion_dot": -5.9e-07,
        "meta_mean_motion_ddot": 0,
        "tle_line1": "1 61187U 24168C   25356.16014476 -.00000059  00000+0  00000+0 0  9997",
        "tle_line2": "2 61187  54.6292 308.3781 0002542 340.4099  85.2457  1.86230347  5960"
      },
      "geometry": {
        "type": "Point",
        "coordinates": [
          -162.27863670460135,
          -52.83322131278163
        ]
      }
    }
  ]
}